[{"OBJECT_NAME":"COSMOS 2573","OBJECT_ID":"2023-201A","EPOCH":"2026-03-10T00:09:51.763968","MEAN_MOTION":15.24110739,"ECCENTRICITY":0.00025748,"INCLINATION":97.6178,"RA_OF_ASC_NODE":16.7239,"ARG_OF_PERICENTER":58.72,"MEAN_ANOMALY":301.4289,"EPHEMERIS_TYPE":0,"CLASSIFICATION_TYPE":"U","NORAD_CAT_ID":58614,"ELEMENT_SET_NO":999,"REV_AT_EPOCH":12337,"BSTAR":0.00023292354,"MEAN_MOTION_DOT":5.586e-5,"MEAN_MOTION_DDOT":0},{"OBJECT_NAME":"KUIPER-00066","OBJECT_ID":"2025-134AC","EPOCH":"2026-03-09T13:42:38.621376","MEAN_MOTION":15.2300073,"ECCENTRICITY":0.0001383,"INCLINATION":51.8707,"RA_OF_ASC_NODE":184.5707,"ARG_OF_PERICENTER":335.7744,"MEAN_ANOMALY":24.3171,"EPHEMERIS_TYPE":0,"CLASSIFICATION_TYPE":"U","NORAD_CAT_ID":64526,"ELEMENT_SET_NO":999,"REV_AT_EPOCH":4074,"BSTAR":0.00081918,"MEAN_MOTION_DOT":0.00019245,"MEAN_MOTION_DDOT":0}]
